[{"OBJECT_NAME":"STARLINK-31209","OBJECT_ID":"2024-020H","EPOCH":"2026-03-09T21:31:33.708288","MEAN_MOTION":15.30186782,"ECCENTRICITY":0.00010168,"INCLINATION":53.1621,"RA_OF_ASC_NODE":321.4006,"ARG_OF_PERICENTER":77.5204,"MEAN_ANOMALY":282.5911,"EPHEMERIS_TYPE":0,"CLASSIFICATION_TYPE":"U","NORAD_CAT_ID":58883,"ELEMENT_SET_NO":999,"REV_AT_EPOCH":11810,"BSTAR":-3.7895091e-5,"MEAN_MOTION_DOT":-1.481e-5,"MEAN_MOTION_DDOT":0},{"OBJECT_NAME":"SCS-01 J","OBJECT_ID":"2025-100J","EPOCH":"2026-03-09T22:31:25.904064","MEAN_MOTION":15.31338011,"ECCENTRICITY":0.00063909,"INCLINATION":97.3693,"RA_OF_ASC_NODE":145.4824,"ARG_OF_PERICENTER":272.025,"MEAN_ANOMALY":88.026,"EPHEMERIS_TYPE":0,"CLASSIFICATION_TYPE":"U","NORAD_CAT_ID":63990,"ELEMENT_SET_NO":999,"REV_AT_EPOCH":4563,"BSTAR":0.0011832888,"MEAN_MOTION_DOT":0.00035886,"MEAN_MOTION_DDOT":0}]
